SWARM B                 
1 39451U 13067A   26195.56301599  .00002006  00000+0  70616-4 0  9991
2 39451  87.7459 334.0003 0002316  82.1125 278.0387 15.28714459687426
SWARM A                 
1 39452U 13067B   26195.63701587  .00006434  00000+0  10839-3 0  9990
2 39452  87.3297  46.0346 0003308  93.5879 266.5761 15.51451929710507
SWARM C                 
1 39453U 13067C   26195.63692226  .00006371  00000+0  10731-3 0  9991
2 39453  87.3297  44.6155 0003300  93.7723 266.3916 15.51451287710464
BRITE-CA1 (TORONTO)     
1 40020U 14033L   26195.35124036  .00000526  00000+0  86646-4 0  9990
2 40020  97.9770 323.7836 0078374 188.9650 171.0163 14.72721565646213
OCO 2                   
1 40059U 14035A   26195.55443433  .00000166  00000+0  46894-4 0  9992
2 40059  98.2020 136.4318 0001442  81.3634 278.7728 14.57131930640031
BRITE-PL2 (HEWELIUSZ)   
1 40119U 14049B   26195.55362018  .00000560  00000+0  57099-4 0  9990
2 40119  97.9120 307.7691 0014396  24.3695 335.8202 14.94686242645532
MMS 1                   
1 40482U 15011A   26195.66668981 -.00001497  00000+0  00000+0 0  9999
2 40482  72.4679 348.4320 8301983 168.0365 221.5244  0.28338034  1350
MMS 2                   
1 40483U 15011B   26195.66668981 -.00001497  00000+0  00000+0 0  9990
2 40483  72.4731 348.4311 8304882 168.0405 221.5077  0.28338839  1353
MMS 3                   
1 40484U 15011C   26195.66668981 -.00001496  00000+0  00000+0 0  9990
2 40484  72.4716 348.4429 8303166 168.0471 221.4859  0.28338010  1329
MMS 4                   
1 40485U 15011D   26195.66668981 -.00001497  00000+0  00000+0 0  9992
2 40485  72.4685 348.4264 8303197 168.0581 221.4769  0.28338879  1387
ASTROSAT                
1 40930U 15052A   26195.60591478  .00001128  00000+0  55705-4 0  9999
2 40930   5.9977 317.9923 0007438  64.8495 295.2404 14.82551732583906
DAMPE                   
1 41173U 15078A   26195.62232541  .00000584  00000+0  22189-4 0  9997
2 41173  97.4558 201.2254 0011642 347.6642  12.4312 15.30851912588748
PISAT                   
1 41784U 16059B   26195.52606584  .00000454  00000+0  84878-4 0  9995
2 41784  97.8191 194.8056 0030425 116.8788 243.5534 14.69028974523755
HXMT (HUIYAN)           
1 42758U 17034A   26195.62799907  .00002159  00000+0  11249-3 0  9999
2 42758  43.0154  30.2190 0032362 317.2788  42.5546 15.18685296501836
FLYING LAPTOP           
1 42831U 17042G   26195.58021759  .00002177  00000+0  17302-3 0  9994
2 42831  97.4797 350.0817 0019729  34.5222 325.7279 15.01310930490565
ZHANGHENG 1-01 (CSES-1) 
1 43194U 18015C   26195.57474513  .00004113  00000+0  19035-3 0  9994
2 43194  97.6886   1.7813 0016340 167.0587 193.1071 15.20604065468802
SALSAT                  
1 46495U 20068K   26195.54877328  .00004163  00000+0  14541-3 0  9992
2 46495  97.8856 200.2874 0009148 195.2534 164.8431 15.30166467319545
IXPE                    
1 49954U 21121A   26195.66668981  .00006028  00000+0  30113-3 0  9997
2 49954   0.2301 109.3873 0006699 134.6823 250.9026 15.10487805  5342
SMILE                   
1 69123U 26109A   26190.74998430  .00001173  00000+0  00000+0 0  9991
2 69123  70.0471 206.6613 8323711 287.0422   0.1458  0.47504768    49
