OBJECT_NAME,OBJECT_ID,EPOCH,MEAN_MOTION,ECCENTRICITY,INCLINATION,RA_OF_ASC_NODE,ARG_OF_PERICENTER,MEAN_ANOMALY,EPHEMERIS_TYPE,CLASSIFICATION_TYPE,NORAD_CAT_ID,ELEMENT_SET_NO,REV_AT_EPOCH,BSTAR,MEAN_MOTION_DOT,MEAN_MOTION_DDOT
SWARM B,2013-067A,2026-07-14T13:30:44.581536,15.28714459,.00023168,87.7459,334.0003,82.1125,278.0387,0,U,39451,999,68742,.70616231E-4,.2006E-4,0
SWARM A,2013-067B,2026-07-14T15:17:18.171168,15.51451929,.00033087,87.3297,46.0346,93.5879,266.5761,0,U,39452,999,71050,.10839212E-3,.6434E-4,0
SWARM C,2013-067C,2026-07-14T15:17:10.083264,15.51451287,.00033008,87.3297,44.6155,93.7723,266.3916,0,U,39453,999,71046,.10730899E-3,.6371E-4,0
BRITE-CA1 (TORONTO),2014-033L,2026-07-14T08:25:47.167104,14.72721565,.00783747,97.9770,323.7836,188.9650,171.0163,0,U,40020,999,64621,.86645796E-4,.526E-5,0
OCO 2,2014-035A,2026-07-14T13:18:23.126112,14.57131930,.00014429,98.2020,136.4318,81.3634,278.7728,0,U,40059,999,64003,.46893976E-4,.166E-5,0
BRITE-PL2 (HEWELIUSZ),2014-049B,2026-07-14T13:17:12.783552,14.94686242,.00143969,97.9120,307.7691,24.3695,335.8202,0,U,40119,999,64553,.57098641E-4,.56E-5,0
MMS 1,2015-011A,2026-07-14T16:00:01.999584,0.28338034,.83019838,72.4679,348.4320,168.0365,221.5244,0,U,40482,999,135,0,-.1497E-4,0
MMS 2,2015-011B,2026-07-14T16:00:01.999584,0.28338839,.83048825,72.4731,348.4311,168.0405,221.5077,0,U,40483,999,135,0,-.1497E-4,0
MMS 3,2015-011C,2026-07-14T16:00:01.999584,0.28338010,.83031665,72.4716,348.4429,168.0471,221.4859,0,U,40484,999,132,0,-.1496E-4,0
MMS 4,2015-011D,2026-07-14T16:00:01.999584,0.28338879,.83031976,72.4685,348.4264,168.0581,221.4769,0,U,40485,999,138,0,-.1497E-4,0
ASTROSAT,2015-052A,2026-07-14T14:32:31.036992,14.82551732,.00074385,5.9977,317.9923,64.8495,295.2404,0,U,40930,999,58390,.55704515E-4,.1128E-4,0
DAMPE,2015-078A,2026-07-14T14:56:08.915424,15.30851912,.00116428,97.4558,201.2254,347.6642,12.4312,0,U,41173,999,58874,.22188619E-4,.584E-5,0
PISAT,2016-059B,2026-07-14T12:37:32.088576,14.69028974,.00304256,97.8191,194.8056,116.8788,243.5534,0,U,41784,999,52375,.8487794E-4,.454E-5,0
HXMT (HUIYAN),2017-034A,2026-07-14T15:04:19.119648,15.18685296,.00323623,43.0154,30.2190,317.2788,42.5546,0,U,42758,999,50183,.11249206E-3,.2159E-4,0
FLYING LAPTOP,2017-042G,2026-07-14T13:55:30.799776,15.01310930,.0019729,97.4797,350.0817,34.5222,325.7279,0,U,42831,999,49056,.17301974E-3,.2177E-4,0
ZHANGHENG 1-01 (CSES-1),2018-015C,2026-07-14T13:47:37.979232,15.20604065,.00163404,97.6886,1.7813,167.0587,193.1071,0,U,43194,999,46880,.19035465E-3,.4113E-4,0
SALSAT,2020-068K,2026-07-14T13:10:14.011392,15.30166467,.00091482,97.8856,200.2874,195.2534,164.8431,0,U,46495,999,31954,.1454086E-3,.4163E-4,0
IXPE,2021-121A,2026-07-14T16:00:01.999584,15.10487805,.00066996,0.2301,109.3873,134.6823,250.9026,0,U,49954,999,534,.30113189E-3,.6028E-4,0
SMILE,2026-109A,2026-07-09T17:59:58.643520,0.47504768,.83237117,70.0471,206.6613,287.0422,0.1458,0,U,69123,999,4,0,.1173E-4,0
